[{"OBJECT_NAME":"STARLINK-35791","OBJECT_ID":"2025-283U","EPOCH":"2026-03-09T06:29:04.179264","MEAN_MOTION":15.30196711,"ECCENTRICITY":0.00011872,"INCLINATION":53.1626,"RA_OF_ASC_NODE":25.8507,"ARG_OF_PERICENTER":53.7672,"MEAN_ANOMALY":306.3438,"EPHEMERIS_TYPE":0,"CLASSIFICATION_TYPE":"U","NORAD_CAT_ID":66896,"ELEMENT_SET_NO":999,"REV_AT_EPOCH":1578,"BSTAR":0.0009036964,"MEAN_MOTION_DOT":0.00026498,"MEAN_MOTION_DDOT":0},{"OBJECT_NAME":"CZ-6A DEB","OBJECT_ID":"2024-140AAN","EPOCH":"2026-03-09T15:08:07.195776","MEAN_MOTION":15.20547394,"ECCENTRICITY":0.0064261,"INCLINATION":89.3669,"RA_OF_ASC_NODE":306.3092,"ARG_OF_PERICENTER":93.6352,"MEAN_ANOMALY":267.2246,"EPHEMERIS_TYPE":0,"CLASSIFICATION_TYPE":"U","NORAD_CAT_ID":61480,"ELEMENT_SET_NO":999,"REV_AT_EPOCH":8198,"BSTAR":0.0033609,"MEAN_MOTION_DOT":0.00078405,"MEAN_MOTION_DDOT":0}]
